NORAD_CAT_ID,OBJECT_NAME,OBJECT_TYPE,EPOCH,MEAN_MOTION,ECCENTRICITY,INCLINATION,RA_OF_ASC_NODE,ARG_OF_PERICENTER,MEAN_ANOMALY,BSTAR,MEAN_MOTION_DOT,MEAN_MOTION_DDOT,TLE_LINE0,TLE_LINE1,TLE_LINE2,SEMIMAJOR_AXIS,PERIOD,APOGEE,PERIGEE,DECAYED
55954.0,STARLINK-5892,PAYLOAD,2023-12-29 18:18:39,14.9832759,0.0002712,70.0004,123.8176,259.3991,100.6862,3.0209e-05,2.67e-06,0.0,0 STARLINK-5892,1 55954U 23037AS  23363.76295249  .00000267  00000-0  30209-4 0  9997,2 55954  70.0004 123.8176 0002712 259.3991 100.6862 14.98327590 44840,6950.2,96.107,573.95,570.18,0.0
55954.0,STARLINK-5892,PAYLOAD,2023-12-30 13:32:15,14.98330863,0.0002887,70.0,121.7966,266.1081,93.9748,1.9804e-05,1.43e-06,0.0,0 STARLINK-5892,1 55954U 23037AS  23364.56406972  .00000143  00000-0  19804-4 0  9994,2 55954  70.0000 121.7966 0002887 266.1081  93.9748 14.98330863 44629,6950.19,96.107,574.062,570.049,0.0
55954.0,STARLINK-5892,PAYLOAD,2023-12-30 18:20:38,14.98394638,0.0002465,70.0004,121.2919,254.2469,105.8418,-0.00093571,-0.00011258,0.0,0 STARLINK-5892,1 55954U 23037AS  23364.76433041 -.00011258  00000-0 -93571-3 0  9996,2 55954  70.0004 121.2919 0002465 254.2469 105.8418 14.98394638 44993,6949.993,96.103,573.571,570.145,0.0
55954.0,STARLINK-5892,PAYLOAD,2023-12-31 11:58:07,14.98337381,0.0003146,70.0,119.4435,263.2473,96.8328,1.1011e-05,3.8e-07,0.0,0 STARLINK-5892,1 55954U 23037AS  23365.49869681  .00000038  00000-0  11011-4 0  9992,2 55954  70.0000 119.4435 0003146 263.2473  96.8328 14.98337381 45108,6950.17,96.107,574.222,569.849,0.0
55954.0,STARLINK-5892,PAYLOAD,2023-12-31 18:22:40,14.98325507,0.0003118,69.9996,118.7666,271.0708,89.0093,-0.00010521,-1.348e-05,0.0,0 STARLINK-5892,1 55954U 23037AS  23365.76574856 -.00001348  00000-0 -10521-3 0  9990,2 55954  69.9996 118.7666 0003118 271.0708  89.0093 14.98325507 45148,6950.207,96.107,574.239,569.905,0.0
55954.0,STARLINK-5892,PAYLOAD,2024-01-01 13:36:17,14.98324294,0.0002869,70.0002,116.7472,265.7534,94.3298,-0.00010133,-1.302e-05,0.0,0 STARLINK-5892,1 55954U 23037AS  24001.56687098 -.00001302  00000-0 -10133-3 0  9998,2 55954  70.0002 116.7472 0002869 265.7534  94.3298 14.98324294 44924,6950.211,96.107,574.07,570.082,0.0
55954.0,STARLINK-5892,PAYLOAD,2024-01-01 18:24:41,14.98328045,0.0003103,69.9996,116.2414,269.0749,91.0055,-7.4269e-05,-9.79e-06,0.0,0 STARLINK-5892,1 55954U 23037AS  24001.76714769 -.00000979  00000-0 -74269-4 0  9996,2 55954  69.9996 116.2414 0003103 269.0749  91.0055 14.98328045 45295,6950.199,96.107,574.221,569.907,0.0
55954.0,STARLINK-5892,PAYLOAD,2024-01-02 12:02:09,14.98340987,0.0002875,69.9998,114.3903,267.2091,92.8739,-0.00024964,-3.071e-05,0.0,0 STARLINK-5892,1 55954U 23037AS  24002.50150267 -.00003071  00000-0 -24964-3 0  9998,2 55954  69.9998 114.3903 0002875 267.2091  92.8739 14.98340987 45404,6950.159,96.106,574.022,570.026,0.0
55954.0,STARLINK-5892,PAYLOAD,2024-01-02 13:38:17,14.98356908,0.0002869,69.9998,114.2221,269.3458,90.7373,-0.00051744,-6.266e-05,0.0,0 STARLINK-5892,1 55954U 23037AS  24002.56825953 -.00006266  00000-0 -51744-3 0  9990,2 55954  69.9998 114.2221 0002869 269.3458  90.7373 14.98356908 45073,6950.11,96.105,573.969,569.981,0.0
55954.0,STARLINK-5892,PAYLOAD,2024-01-02 16:50:38,14.98101804,0.0001859,70.0,113.8871,283.0759,77.0192,0.0039574,0.00047164,0.0,0 STARLINK-5892,1 55954U 23037AS  24002.70183870  .00047164  00000-0  39574-2 0  9997,2 55954  70.0000 113.8871 0001859 283.0759  77.0192 14.98101804 45431,6950.899,96.122,574.056,571.471,0.0
55954.0,STARLINK-5892,PAYLOAD,2024-01-03 12:04:14,14.98297104,0.000243,70.0014,111.8685,248.6175,111.4725,-0.00018664,-2.317e-05,0.0,0 STARLINK-5892,1 55954U 23037AS  24003.50294029 -.00002317  00000-0 -18664-3 0  9996,2 55954  70.0014 111.8685 0002430 248.6175 111.4725 14.98297104 45559,6950.295,96.109,573.849,570.471,0.0
55954.0,STARLINK-5892,PAYLOAD,2024-01-03 13:40:22,14.98296854,0.0002331,70.0019,111.7001,230.2054,129.89,-0.00018485,-2.296e-05,0.0,0 STARLINK-5892,1 55954U 23037AS  24003.56970125 -.00002296  00000-0 -18485-3 0  9997,2 55954  70.0019 111.7001 0002331 230.2054 129.8900 14.98296854 45221,6950.295,96.109,573.781,570.54,0.0
55954.0,STARLINK-5892,PAYLOAD,2024-01-03 16:52:37,14.98312747,0.0002873,69.9999,111.3612,260.2513,99.8322,-5.0932e-05,-7e-06,0.0,0 STARLINK-5892,1 55954U 23037AS  24003.70320823 -.00000700  00000-0 -50932-4 0  9999,2 55954  69.9999 111.3612 0002873 260.2513  99.8322 14.98312747 45586,6950.246,96.108,574.108,570.114,0.0
55954.0,STARLINK-5892,PAYLOAD,2024-01-04 12:06:13,14.98326804,0.0003073,69.9995,109.3395,279.7506,80.3306,5.7924e-05,5.98e-06,0.0,0 STARLINK-5892,1 55954U 23037AS  24004.50432303  .00000598  00000-0  57924-4 0  9996,2 55954  69.9995 109.3395 0003073 279.7506  80.3306 14.98326804 45707,6950.203,96.107,574.204,569.932,0.0
55954.0,STARLINK-5892,PAYLOAD,2024-01-04 13:42:21,14.98328133,0.0002866,69.9998,109.1715,274.5053,85.5778,8.0125e-05,8.63e-06,0.0,0 STARLINK-5892,1 55954U 23037AS  24004.57108148  .00000863  00000-0  80125-4 0  9994,2 55954  69.9998 109.1715 0002866 274.5053  85.5778 14.98328133 45373,6950.199,96.107,574.056,570.072,0.0
55954.0,STARLINK-5892,PAYLOAD,2024-01-04 16:54:37,14.98330681,0.0002436,70.001,108.8372,259.5259,100.5626,8.5684e-05,9.3e-06,0.0,0 STARLINK-5892,1 55954U 23037AS  24004.70459814  .00000930  00000-0  85684-4 0  9998,2 55954  70.0010 108.8372 0002436 259.5259 100.5626 14.98330681 45393,6950.191,96.107,573.749,570.363,0.0
55954.0,STARLINK-5892,PAYLOAD,2024-01-05 12:08:13,14.98374909,0.0002247,70.0007,106.8163,257.0975,102.9933,-0.00045471,-5.52e-05,0.0,0 STARLINK-5892,1 55954U 23037AS  24005.50570793 -.00005520  00000-0 -45471-3 0  9998,2 55954  70.0007 106.8163 0002247 257.0975 102.9933 14.98374909 45852,6950.054,96.104,573.481,570.357,0.0
55954.0,STARLINK-5892,PAYLOAD,2024-01-05 13:44:21,14.98337036,0.0001919,70.0019,106.6503,232.5004,127.5981,0.00033061,3.855e-05,0.0,0 STARLINK-5892,1 55954U 23037AS  24005.57246857  .00003855  00000-0  33061-3 0  9995,2 55954  70.0019 106.6503 0001919 232.5004 127.5981 14.98337036 45527,6950.171,96.107,573.37,570.702,0.0
55954.0,STARLINK-5892,PAYLOAD,2024-01-05 16:56:35,14.98349571,0.0002702,70.0002,106.3099,266.7209,93.3641,0.00069246,8.183e-05,0.0,0 STARLINK-5892,1 55954U 23037AS  24005.70596995  .00008183  00000-0  69246-3 0  9994,2 55954  70.0002 106.3099 0002702 266.7209  93.3641 14.98349571 45545,6950.132,96.106,573.875,570.119,0.0
55954.0,STARLINK-5892,PAYLOAD,2024-01-06 12:10:15,14.98329209,0.0002611,70.0002,104.2914,267.9901,92.0959,-0.00016374,-2.046e-05,0.0,0 STARLINK-5892,1 55954U 23037AS  24006.50711911 -.00002046  00000-0 -16374-3 0  9998,2 55954  70.0002 104.2914 0002611 267.9901  92.0959 14.98329209 46005,6950.195,96.107,573.875,570.246,0.0
55954.0,STARLINK-5892,PAYLOAD,2024-01-06 16:58:39,14.98329855,0.0002499,70.0004,103.7861,266.7653,93.3221,-0.00014361,-1.806e-05,0.0,0 STARLINK-5892,1 55954U 23037AS  24006.70739815 -.00001806  00000-0 -14361-3 0  9990,2 55954  70.0004 103.7861 0002499 266.7653  93.3221 14.98329855 45694,6950.193,96.107,573.795,570.321,0.0
55954.0,STARLINK-5892,PAYLOAD,2024-01-07 12:12:15,14.98335287,0.0002514,70.0003,101.7662,265.2972,94.79,-0.00010976,-1.402e-05,0.0,0 STARLINK-5892,1 55954U 23037AS  24007.50851018 -.00001402  00000-0 -10976-3 0  9999,2 55954  70.0003 101.7662 0002514 265.2972  94.7900 14.98335287 46153,6950.177,96.107,573.789,570.294,0.0
55954.0,STARLINK-5892,PAYLOAD,2024-01-07 13:48:23,14.98337164,0.0002515,70.0006,101.5986,268.8204,91.2667,-0.00010539,-1.35e-05,0.0,0 STARLINK-5892,1 55954U 23037AS  24007.57526894 -.00001350  00000-0 -10539-3 0  9994,2 55954  70.0006 101.5986 0002515 268.8204  91.2667 14.98337164 45822,6950.171,96.107,573.784,570.288,0.0
55954.0,STARLINK-5892,PAYLOAD,2024-01-07 15:24:30,14.98350134,0.0002538,70.0,101.4293,270.4879,89.599,-0.00023126,-2.853e-05,0.0,0 STARLINK-5892,1 55954U 23037AS  24007.64202300 -.00002853  00000-0 -23126-3 0  9990,2 55954  70.0000 101.4293 0002538 270.4879  89.5990 14.98350134 46178,6950.131,96.106,573.76,570.232,0.0
55954.0,STARLINK-5892,PAYLOAD,2024-01-08 10:38:07,14.98324371,0.0002494,70.0003,99.4103,263.5166,96.571,9.1769e-05,1.002e-05,0.0,0 STARLINK-5892,1 55954U 23037AS  24008.44314665  .00001002  00000-0  91769-4 0  9999,2 55954  70.0003  99.4103 0002494 263.5166  96.5710 14.98324371 46295,6950.21,96.107,573.809,570.342,0.0
55954.0,STARLINK-5892,PAYLOAD,2024-01-08 13:50:24,14.98323076,0.0002366,70.0006,99.0743,261.2278,98.8613,6.0896e-05,6.34e-06,0.0,0 STARLINK-5892,1 55954U 23037AS  24008.57666921  .00000634  00000-0  60896-4 0  9995,2 55954  70.0006  99.0743 0002366 261.2278  98.8613 14.98323076 45973,6950.214,96.107,573.724,570.435,0.0
55954.0,STARLINK-5892,PAYLOAD,2024-01-08 15:26:32,14.98325338,0.0002555,70.0003,98.9054,264.0901,95.9967,0.00010299,1.136e-05,0.0,0 STARLINK-5892,1 55954U 23037AS  24008.64342650  .00001136  00000-0  10299-3 0  9992,2 55954  70.0003  98.9054 0002555 264.0901  95.9967 14.98325338 45981,6950.207,96.107,573.848,570.297,0.0
55954.0,STARLINK-5892,PAYLOAD,2024-01-09 10:40:08,14.98328356,0.0002559,70.0003,96.8854,260.6121,99.4749,6.7531e-06,-1.2e-07,0.0,0 STARLINK-5892,1 55954U 23037AS  24009.44454729 -.00000012  00000-0  67531-5 0  9998,2 55954  70.0003  96.8854 0002559 260.6121  99.4749 14.98328356 46448,6950.198,96.107,573.842,570.284,0.0
55954.0,STARLINK-5892,PAYLOAD,2024-01-09 13:52:24,14.98329674,0.0002368,70.001,96.5501,252.773,107.317,1.3926e-05,7.3e-07,0.0,0 STARLINK-5892,1 55954U 23037AS  24009.57806627  .00000073  00000-0  13926-4 0  9994,2 55954  70.0010  96.5501 0002368 252.7730 107.3170 14.98329674 46124,6950.194,96.107,573.705,570.413,0.0
55954.0,STARLINK-5892,PAYLOAD,2024-01-09 15:28:32,14.98328931,0.0002459,70.001,96.3816,257.1069,102.9816,4.1755e-05,4.05e-06,0.0,0 STARLINK-5892,1 55954U 23037AS  24009.64482609  .00000405  00000-0  41755-4 0  9992,2 55954  70.0010  96.3816 0002459 257.1069 102.9816 14.98328931 46130,6950.196,96.107,573.77,570.352,0.0
